OBJECT_NAME,OBJECT_ID,EPOCH,MEAN_MOTION,ECCENTRICITY,INCLINATION,RA_OF_ASC_NODE,ARG_OF_PERICENTER,MEAN_ANOMALY,EPHEMERIS_TYPE,CLASSIFICATION_TYPE,NORAD_CAT_ID,ELEMENT_SET_NO,REV_AT_EPOCH,BSTAR,MEAN_MOTION_DOT,MEAN_MOTION_DDOT
LEMUR-2-ROUNDTRIPPER,2025-009DG,2026-06-26T06:37:19.309152,15.03931924,.00055791,97.7250,259.9428,108.8899,251.2932,0,U,62711,999,7899,.6940365E-3,.952E-4,0
LEMUR-2-MYNAMEISJEFF,2025-009DH,2026-06-25T13:01:06.296736,15.03916865,.0004029,97.7294,259.5966,135.3275,224.8275,0,U,62712,999,7888,.76764E-3,.10532E-3,0
LEMUR-2-LEIA-PHILIP,2025-052AN,2026-06-26T05:24:03.003264,14.97335302,.00036335,97.6821,69.0237,179.8804,180.2420,0,U,63246,999,7002,.11204445E-3,.1243E-4,0
LEMUR-2-LIA-MARTIN,2025-052AQ,2026-06-26T05:26:57.337728,14.97866305,.00037548,97.6877,69.5138,141.3804,218.7688,0,U,63248,999,7003,.43753278E-3,.5092E-4,0
LEMUR-2-DELOITTE-1,2025-052BB,2026-06-26T06:30:51.866496,14.97666425,.00031944,97.6928,69.8882,77.7426,282.4154,0,U,63259,999,7005,.31585027E-3,.364E-4,0
LEMUR-2-EMERSONROSE,2025-052BD,2026-06-26T05:42:17.158176,14.99139767,.00020232,97.6879,70.4290,77.9052,282.2398,0,U,63261,999,7009,.37499042E-3,.4502E-4,0
LEMUR-2-MARACHE-FRAN,2025-052BE,2026-06-25T22:33:36.277344,15.00173475,.00045654,97.6926,70.4715,347.4009,12.7100,0,U,63262,999,7007,.42450805E-3,.5246E-4,0
LEMUR-2-THEFALCONER,2025-052BG,2026-06-26T05:34:34.339296,14.97439399,.00015865,97.6848,69.4592,16.2499,343.8774,0,U,63264,999,7004,.34058461E-3,.3906E-4,0
LEMUR-2-UNTITLED-SC,2025-061A,2026-06-26T05:05:52.126368,15.13531866,.00173095,97.5637,152.5085,230.4277,129.5426,0,U,63351,999,6895,.23052981E-3,.4078E-4,0
LEMUR-2-ESPERANZA,2025-061B,2026-06-26T04:32:09.327840,15.13623255,.00169206,97.5641,152.5807,229.6736,130.3018,0,U,63352,999,6895,.19919109E-3,.3523E-4,0
LEMUR-2-KREMPEL-BRO2,2025-061C,2026-06-25T21:11:24.927360,15.14059221,.00179699,97.5690,152.8214,222.8949,137.0882,0,U,63353,999,6892,.22558285E-3,.405E-4,0
LEMUR-2-THERMORAPTOR,2025-061D,2026-06-26T04:40:45.086592,15.14142889,.00177516,97.5695,153.2090,220.6208,139.3701,0,U,63354,999,6897,.21593175E-3,.3882E-4,0
LEMUR-2-NEUROSPICY,2025-061E,2026-06-25T21:38:20.650560,15.14255595,.00154721,97.5619,152.5364,224.9017,135.0964,0,U,63355,999,6893,.21099747E-3,.3801E-4,0
LEMUR-2-TILLINFINITY,2025-061F,2026-06-26T04:44:45.898944,15.14844333,.00170285,97.5605,153.1277,211.2410,148.7812,0,U,63356,999,6900,.22414983E-3,.4113E-4,0
LEMUR-2-KREMPEL-BRO1,2025-061G,2026-06-26T05:43:21.476064,15.14649515,.00176452,97.5606,153.0817,212.6899,147.3242,0,U,63357,999,6900,.20835712E-3,.3798E-4,0
LEMUR-2-LANGER2SPACE,2025-061H,2026-06-25T22:28:22.520928,15.14343732,.00154281,97.5613,152.5919,222.9527,137.0501,0,U,63358,999,6894,.22498374E-3,.4068E-4,0
LEMUR-2-BALTO,2025-052BH,2026-06-25T15:47:25.240992,15.00175304,.00066581,97.6920,70.1680,35.4862,324.6803,0,U,63395,999,7003,.55110671E-3,.6831E-4,0
LEMUR-2-KRISH,2025-135AK,2026-06-26T07:16:34.065120,14.96281635,.00011307,97.7745,292.1170,99.7374,260.3975,0,U,64561,999,5528,.46222111E-3,.5165E-4,0
LEMUR-2-HUBBLE-4,2025-135AP,2026-06-25T05:52:17.732352,14.93362478,.0002848,97.7646,290.0421,296.9282,63.1646,0,U,64565,999,5507,.13793E-3,.139E-4,0
LEMUR-2-SEJONG-2,2025-135BL,2026-06-26T06:19:14.107008,14.96764889,.00028592,97.7690,292.2216,303.2575,56.8372,0,U,64586,999,5530,.48064069E-3,.5441E-4,0
LEMUR-2-HUBBLE-5,2025-135BT,2026-06-26T06:21:58.927104,14.94162189,.00043274,97.7724,291.7102,319.4758,40.6140,0,U,64840,999,5526,.18921038E-3,.1968E-4,0
LEMUR-2-KARENDARRELL,2025-135BU,2026-06-26T06:08:55.593600,15.00236349,.00104725,97.7679,293.4488,167.7917,192.3562,0,U,64841,999,5537,.74452198E-3,.9273E-4,0
LEMUR-2-LUCILLE-ROSE,2025-135BV,2026-06-26T07:06:47.613888,15.00260284,.00122359,97.7748,293.5183,249.5106,110.4804,0,U,65403,999,5000,.64143487E-3,.7987E-4,0
LEMUR-2-AFFIE-WAUWIE,2025-248C,2026-06-25T18:07:10.726464,15.27482662,.00075678,45.3936,68.5606,143.0765,217.0646,0,U,66295,999,3590,.10453969E-2,.28463E-3,0
LEMUR-2-DEANANDMAEVE,2025-276N,2026-06-25T17:48:57.995424,15.19830139,.00048805,97.4218,250.0762,342.9738,17.1332,0,U,66678,999,3171,.38000896E-3,.8082E-4,0
LEMUR-2-STAS-GORBUK,2025-276W,2026-06-26T03:41:44.434464,15.19468435,.00041551,97.4249,250.5351,342.4929,17.6161,0,U,66686,999,3177,.32108857E-3,.6745E-4,0
LEMUR-2-TEODOR,2025-276DG,2026-06-26T04:38:57.280128,15.21142064,.00023684,97.4155,250.8219,107.8780,252.2714,0,U,66768,999,3181,.28938656E-3,.6376E-4,0
LEMUR-2-LAILA,2025-276DQ,2026-06-26T03:59:30.215616,15.21364676,.00026646,97.4178,250.9213,122.9238,237.2255,0,U,66776,999,3181,.30969483E-3,.6874E-4,0
LEMUR-2-CELIJO-SB-PK,2025-276DW,2026-06-26T04:12:41.529024,15.00078604,.00082009,97.5234,247.6578,110.8239,249.3864,0,U,66781,999,2397,.58298603E-3,.7215E-4,0
